[{"OBJECT_NAME":"GEOSCAN 1 (RS92S1)","OBJECT_ID":"2025-155E","EPOCH":"2026-03-09T22:44:05.846496","MEAN_MOTION":15.28410635,"ECCENTRICITY":0.00087099,"INCLINATION":97.4463,"RA_OF_ASC_NODE":37.403,"ARG_OF_PERICENTER":153.6429,"MEAN_ANOMALY":206.5255,"EPHEMERIS_TYPE":0,"CLASSIFICATION_TYPE":"U","NORAD_CAT_ID":64880,"ELEMENT_SET_NO":999,"REV_AT_EPOCH":6560,"BSTAR":0.00054367431,"MEAN_MOTION_DOT":0.00014993,"MEAN_MOTION_DDOT":0},{"OBJECT_NAME":"STARLINK-36086","OBJECT_ID":"2025-288X","EPOCH":"2026-03-09T05:27:11.490048","MEAN_MOTION":15.27578563,"ECCENTRICITY":0.00015551,"INCLINATION":43.0008,"RA_OF_ASC_NODE":26.3238,"ARG_OF_PERICENTER":251.64,"MEAN_ANOMALY":108.4283,"EPHEMERIS_TYPE":0,"CLASSIFICATION_TYPE":"U","NORAD_CAT_ID":66980,"ELEMENT_SET_NO":999,"REV_AT_EPOCH":1521,"BSTAR":0.00059201614,"MEAN_MOTION_DOT":0.00016064,"MEAN_MOTION_DDOT":0}]
